{
  "type": "FeatureCollection",
  "features": [
    {
      "type": "Feature",
      "properties": {
        "norad_id": 35797,
        "name": "IRIDIUM 33 DEB",
        "group": "iridium-33-debris",
        "lat": 8.028329536648561,
        "lon": 143.21821115324792,
        "alt_km": 617.3535979614744,
        "timestamp": "2025-12-26T07:29:18.839801+00:00",
        "meta_object_name": "IRIDIUM 33 DEB",
        "meta_object_id": "1997-051SF",
        "meta_epoch": "2025-12-25T04:48:32.062176",
        "meta_mean_motion": 14.83087004,
        "meta_eccentricity": 0.0015142,
        "meta_inclination": 86.3371,
        "meta_ra_of_asc_node": 324.2466,
        "meta_arg_of_pericenter": 108.6966,
        "meta_mean_anomaly": 251.5901,
        "meta_ephemeris_type": 0,
        "meta_classification_type": "U",
        "meta_norad_cat_id": 35797,
        "meta_element_set_no": 999,
        "meta_rev_at_epoch": 87525,
        "meta_bstar": 0.0019466,
        "meta_mean_motion_dot": 0.00015924,
        "meta_mean_motion_ddot": 0,
        "tle_line1": "1 35797U 97051SF  25359.20037109  .00015924  00000+0  19466-2 0  9997",
        "tle_line2": "2 35797  86.3371 324.2466 0015142 108.6966 251.5901 14.83087004875252"
      },
      "geometry": {
        "type": "Point",
        "coordinates": [
          143.21821115324792,
          8.028329536648561
        ]
      }
    },
    {
      "type": "Feature",
      "properties": {
        "norad_id": 35806,
        "name": "IRIDIUM 33 DEB",
        "group": "iridium-33-debris",
        "lat": -47.97662516668909,
        "lon": 10.5828330960184,
        "alt_km": 706.7350720221057,
        "timestamp": "2025-12-26T07:29:18.839812+00:00",
        "meta_object_name": "IRIDIUM 33 DEB",
        "meta_object_id": "1997-051SQ",
        "meta_epoch": "2025-12-25T18:31:35.635008",
        "meta_mean_motion": 14.5746677,
        "meta_eccentricity": 0.00150433,
        "meta_inclination": 86.344,
        "meta_ra_of_asc_node": 14.8893,
        "meta_arg_of_pericenter": 35.5825,
        "meta_mean_anomaly": 324.6384,
        "meta_ephemeris_type": 0,
        "meta_classification_type": "U",
        "meta_norad_cat_id": 35806,
        "meta_element_set_no": 999,
        "meta_rev_at_epoch": 86514,
        "meta_bstar": 0.0012174975,
        "meta_mean_motion_dot": 5.557e-05,
        "meta_mean_motion_ddot": 0,
        "tle_line1": "1 35806U 97051SQ  25359.77194022  .00005557  00000+0  12175-2 0  9999",
        "tle_line2": "2 35806  86.3440  14.8893 0015043  35.5825 324.6384 14.57466770865144"
      },
      "geometry": {
        "type": "Point",
        "coordinates": [
          10.5828330960184,
          -47.97662516668909
        ]
      }
    },
    {
      "type": "Feature",
      "properties": {
        "norad_id": 35809,
        "name": "IRIDIUM 33 DEB",
        "group": "iridium-33-debris",
        "lat": 44.24302930443341,
        "lon": 145.58051417912094,
        "alt_km": 634.2543190803335,
        "timestamp": "2025-12-26T07:29:18.839822+00:00",
        "meta_object_name": "IRIDIUM 33 DEB",
        "meta_object_id": "1997-051ST",
        "meta_epoch": "2025-12-21T16:13:39.380736",
        "meta_mean_motion": 14.75870585,
        "meta_eccentricity": 0.00102664,
        "meta_inclination": 86.3279,
        "meta_ra_of_asc_node": 331.2775,
        "meta_arg_of_pericenter": 205.8578,
        "meta_mean_anomaly": 154.2129,
        "meta_ephemeris_type": 0,
        "meta_classification_type": "U",
        "meta_norad_cat_id": 35809,
        "meta_element_set_no": 999,
        "meta_rev_at_epoch": 86939,
        "meta_bstar": 0.0013721853,
        "meta_mean_motion_dot": 9.452e-05,
        "meta_mean_motion_ddot": 0,
        "tle_line1": "1 35809U 97051ST  25355.67615024  .00009452  00000+0  13722-2 0  9994",
        "tle_line2": "2 35809  86.3279 331.2775 0010266 205.8578 154.2129 14.75870585869399"
      },
      "geometry": {
        "type": "Point",
        "coordinates": [
          145.58051417912094,
          44.24302930443341
        ]
      }
    },
    {
      "type": "Feature",
      "properties": {
        "norad_id": 35846,
        "name": "IRIDIUM 33 DEB",
        "group": "iridium-33-debris",
        "lat": 55.93778039369709,
        "lon": -132.3338518322365,
        "alt_km": 728.5790178735097,
        "timestamp": "2025-12-26T07:29:18.839832+00:00",
        "meta_object_name": "IRIDIUM 33 DEB",
        "meta_object_id": "1997-051SW",
        "meta_epoch": "2025-12-24T21:38:12.688800",
        "meta_mean_motion": 14.43199531,
        "meta_eccentricity": 0.0019834,
        "meta_inclination": 86.3738,
        "meta_ra_of_asc_node": 53.6502,
        "meta_arg_of_pericenter": 132.6503,
        "meta_mean_anomaly": 227.6373,
        "meta_ephemeris_type": 0,
        "meta_classification_type": "U",
        "meta_norad_cat_id": 35846,
        "meta_element_set_no": 999,
        "meta_rev_at_epoch": 71504,
        "meta_bstar": 0.00052874,
        "meta_mean_motion_dot": 1.8e-05,
        "meta_mean_motion_ddot": 0,
        "tle_line1": "1 35846U 97051SW  25358.90153575  .00001800  00000+0  52874-3 0  9993",
        "tle_line2": "2 35846  86.3738  53.6502 0019834 132.6503 227.6373 14.43199531715046"
      },
      "geometry": {
        "type": "Point",
        "coordinates": [
          -132.3338518322365,
          55.93778039369709
        ]
      }
    },
    {
      "type": "Feature",
      "properties": {
        "norad_id": 35848,
        "name": "IRIDIUM 33 DEB",
        "group": "iridium-33-debris",
        "lat": -51.616182598861045,
        "lon": -165.41073262696938,
        "alt_km": 639.4853141454723,
        "timestamp": "2025-12-26T07:29:18.839846+00:00",
        "meta_object_name": "IRIDIUM 33 DEB",
        "meta_object_id": "1997-051SY",
        "meta_epoch": "2025-12-25T19:04:39.531072",
        "meta_mean_motion": 14.78906992,
        "meta_eccentricity": 0.00094239,
        "meta_inclination": 86.3901,
        "meta_ra_of_asc_node": 10.2507,
        "meta_arg_of_pericenter": 146.078,
        "meta_mean_anomaly": 214.1045,
        "meta_ephemeris_type": 0,
        "meta_classification_type": "U",
        "meta_norad_cat_id": 35848,
        "meta_element_set_no": 999,
        "meta_rev_at_epoch": 66883,
        "meta_bstar": 0.0016240554,
        "meta_mean_motion_dot": 0.0001201,
        "meta_mean_motion_ddot": 0,
        "tle_line1": "1 35848U 97051SY  25359.79490198  .00012010  00000+0  16241-2 0  9990",
        "tle_line2": "2 35848  86.3901  10.2507 0009423 146.0780 214.1045 14.78906992668839"
      },
      "geometry": {
        "type": "Point",
        "coordinates": [
          -165.41073262696938,
          -51.616182598861045
        ]
      }
    },
    {
      "type": "Feature",
      "properties": {
        "norad_id": 35850,
        "name": "IRIDIUM 33 DEB",
        "group": "iridium-33-debris",
        "lat": -26.29346638117157,
        "lon": 159.87749335693852,
        "alt_km": 635.2102230111223,
        "timestamp": "2025-12-26T07:29:18.839857+00:00",
        "meta_object_name": "IRIDIUM 33 DEB",
        "meta_object_id": "1997-051TA",
        "meta_epoch": "2025-12-23T16:51:33.482304",
        "meta_mean_motion": 14.79050016,
        "meta_eccentricity": 0.00107739,
        "meta_inclination": 86.3501,
        "meta_ra_of_asc_node": 339.2572,
        "meta_arg_of_pericenter": 146.4147,
        "meta_mean_anomaly": 213.7758,
        "meta_ephemeris_type": 0,
        "meta_classification_type": "U",
        "meta_norad_cat_id": 35850,
        "meta_element_set_no": 999,
        "meta_rev_at_epoch": 71519,
        "meta_bstar": 0.001670653,
        "meta_mean_motion_dot": 0.00012399,
        "meta_mean_motion_ddot": 0,
        "tle_line1": "1 35850U 97051TA  25357.70247086  .00012399  00000+0  16707-2 0  9995",
        "tle_line2": "2 35850  86.3501 339.2572 0010773 146.4147 213.7758 14.79050016715191"
      },
      "geometry": {
        "type": "Point",
        "coordinates": [
          159.87749335693852,
          -26.29346638117157
        ]
      }
    },
    {
      "type": "Feature",
      "properties": {
        "norad_id": 35915,
        "name": "IRIDIUM 33 DEB",
        "group": "iridium-33-debris",
        "lat": -60.22271954112541,
        "lon": 163.16927621932803,
        "alt_km": 635.0552383584418,
        "timestamp": "2025-12-26T07:29:18.839867+00:00",
        "meta_object_name": "IRIDIUM 33 DEB",
        "meta_object_id": "1997-051TY",
        "meta_epoch": "2025-12-22T16:27:49.238784",
        "meta_mean_motion": 14.80964903,
        "meta_eccentricity": 0.00122455,
        "meta_inclination": 86.3447,
        "meta_ra_of_asc_node": 338.4114,
        "meta_arg_of_pericenter": 150.5648,
        "meta_mean_anomaly": 209.6266,
        "meta_ephemeris_type": 0,
        "meta_classification_type": "U",
        "meta_norad_cat_id": 35915,
        "meta_element_set_no": 999,
        "meta_rev_at_epoch": 8233,
        "meta_bstar": 0.0017914035,
        "meta_mean_motion_dot": 0.00013917,
        "meta_mean_motion_ddot": 0,
        "tle_line1": "1 35915U 97051TY  25356.68598656  .00013917  00000+0  17914-2 0  9993",
        "tle_line2": "2 35915  86.3447 338.4114 0012245 150.5648 209.6266 14.80964903 82335"
      },
      "geometry": {
        "type": "Point",
        "coordinates": [
          163.16927621932803,
          -60.22271954112541
        ]
      }
    }
  ]
}